[{"OBJECT_NAME":"ION SCV-011","OBJECT_ID":"2023-084AB","EPOCH":"2026-03-09T22:35:16.566144","MEAN_MOTION":15.27752464,"ECCENTRICITY":0.00079323,"INCLINATION":98.1356,"RA_OF_ASC_NODE":247.1056,"ARG_OF_PERICENTER":30.3898,"MEAN_ANOMALY":329.7798,"EPHEMERIS_TYPE":0,"CLASSIFICATION_TYPE":"U","NORAD_CAT_ID":56957,"ELEMENT_SET_NO":999,"REV_AT_EPOCH":15065,"BSTAR":0.0002590454,"MEAN_MOTION_DOT":6.943e-5,"MEAN_MOTION_DDOT":0},{"OBJECT_NAME":"STARLINK-31550","OBJECT_ID":"2024-057U","EPOCH":"2026-03-09T08:30:09.303840","MEAN_MOTION":15.27581044,"ECCENTRICITY":0.00013198,"INCLINATION":43.0001,"RA_OF_ASC_NODE":189.319,"ARG_OF_PERICENTER":268.8625,"MEAN_ANOMALY":91.2076,"EPHEMERIS_TYPE":0,"CLASSIFICATION_TYPE":"U","NORAD_CAT_ID":59338,"ELEMENT_SET_NO":999,"REV_AT_EPOCH":10978,"BSTAR":-8.2223334e-5,"MEAN_MOTION_DOT":-2.524e-5,"MEAN_MOTION_DDOT":0}]
